[{"OBJECT_NAME":"STARLINK-5300","OBJECT_ID":"2023-021BA","EPOCH":"2026-03-09T14:26:37.309344","MEAN_MOTION":14.98354952,"ECCENTRICITY":0.000317,"INCLINATION":70.0014,"RA_OF_ASC_NODE":144.7179,"ARG_OF_PERICENTER":271.1144,"MEAN_ANOMALY":88.9652,"EPHEMERIS_TYPE":0,"CLASSIFICATION_TYPE":"U","NORAD_CAT_ID":55676,"ELEMENT_SET_NO":999,"REV_AT_EPOCH":16976,"BSTAR":0.00058231,"MEAN_MOTION_DOT":6.866e-5,"MEAN_MOTION_DDOT":0},{"OBJECT_NAME":"IKONOS 2","OBJECT_ID":"1999-051A","EPOCH":"2026-03-09T15:19:40.153152","MEAN_MOTION":14.96976552,"ECCENTRICITY":0.0006412,"INCLINATION":98.1486,"RA_OF_ASC_NODE":313.4587,"ARG_OF_PERICENTER":157.8343,"MEAN_ANOMALY":202.3156,"EPHEMERIS_TYPE":0,"CLASSIFICATION_TYPE":"U","NORAD_CAT_ID":25919,"ELEMENT_SET_NO":999,"REV_AT_EPOCH":42402,"BSTAR":0.00024901,"MEAN_MOTION_DOT":2.801e-5,"MEAN_MOTION_DDOT":0}]
